DUBAISAT-1              
1 35682U 09041B   26199.08771991  .00000365  00000+0  61652-4 0  9994
2 35682  98.0089 332.0139 0009690 338.9394  21.1415 14.75169131909655
OCEANSAT-2              
1 35931U 09051A   26199.22452228 -.00000021  00000+0  11432-4 0  9998
2 35931  98.2322 182.9772 0017539 144.7955 215.4374 13.99655927883679
WORLDVIEW-2 (WV-2)      
1 35946U 09055A   26199.26867549  .00000041  00000+0  28062-4 0  9996
2 35946  98.4754 272.2951 0005419 122.4763 237.6949 14.37907448880113
SMOS                    
1 36036U 09059A   26199.11529352  .00000103  00000+0  46776-4 0  9993
2 36036  98.4430  25.9970 0001180  97.5512 262.5811 14.39736941877902
YAOGAN-7                
1 36110U 09069A   26199.16250640  .00000186  00000+0  32977-4 0  9992
2 36110  98.0028  84.8325 0023341 301.3574  58.5352 14.78036983894206
TANDEM-X                
1 36605U 10030A   26188.47915494  .00000386  00000+0  21566-4 0  9992
2 36605  97.4457 195.8973 0001887  94.3019 265.8431 15.19154052889726
CARTOSAT-2B             
1 36795U 10035A   26199.33294346  .00000114  00000+0  22686-4 0  9993
2 36795  97.9932 249.6805 0012743  90.8256 269.4415 14.78652745864459
YAOGAN-10               
1 36834U 10038A   26199.32885006  .00000278  00000+0  38470-4 0  9997
2 36834  97.8965 222.4852 0001601  81.0273 289.5247 14.85433146861836
COSMO-SKYMED 4          
1 37216U 10060A   26199.29607407 -.00000114  00000+0 -77727-5 0  9990
2 37216  97.8892  22.4454 0001544  85.1514 274.9875 14.82149722849174
RESOURCESAT-2           
1 37387U 11015A   26199.26861677  .00000029  00000+0  33309-4 0  9998
2 37387  98.7630 266.4932 0011738 162.5529 197.6053 14.21599976790599
HAIYANG-2A              
1 37781U 11043A   26199.28103422 -.00000005  00000+0  41793-4 0  9997
2 37781  99.3400 201.2423 0002020  23.5087 336.6154 13.73205346750921
RASAT                   
1 37791U 11044D   26199.25772652  .00000406  00000+0  78747-4 0  9996
2 37791  98.0583 290.1808 0021937  93.6120 342.6382 14.68195153797748
SRMSAT                  
1 37841U 11058D   26199.33131781  .00000323  00000+0  31598-4 0  9999
2 37841  19.9705 230.9631 0011674 185.6722 272.4800 14.11581459762221
PLEIADES 1A             
1 38012U 11076F   26199.34222291  .00000090  00000+0  29172-4 0  9994
2 38012  98.1967 274.0247 0001630  77.9448 357.4396 14.58547810776539
ZIYUAN 1-02C (ZY 1-02C) 
1 38038U 11079A   26199.31540722  .00000247  00000+0  95458-4 0  9998
2 38038  98.4056 265.9717 0005810 204.1863 232.0791 14.38237449763680
ARIRANG-3 (KOMPSAT-3)   
1 38338U 12025B   26199.30519513  .00000176  00000+0  44233-4 0  9992
2 38338  98.1187 156.2318 0006035  30.4365 329.7186 14.62230472755893
EXACTVIEW-1 (ADS-1B)    
1 38709U 12039C   26199.27603917  .00000039  00000+0  36600-4 0  9994
2 38709  98.9808 317.3728 0011943  83.4857 276.7681 14.24992675727131
SPOT 6                  
1 38755U 12047A   26199.27466983  .00000008  00000+0  11598-4 0  9999
2 38755  98.2104 266.2173 0001110  91.8214 268.3112 14.58539458737584
PLEIADES 1B             
1 39019U 12068A   26199.29327589 -.00000046  00000+0 -17755-6 0  9993
2 39019  98.1937 273.9147 0001500  78.7123 281.4244 14.58534811725388
GOKTURK 2               
1 39030U 12073A   26199.27447103 -.00000087  00000+0 -58752-5 0  9991
2 39030  97.6806  35.1458 0001003  99.4873 260.6451 14.75568979729095
LANDSAT 8               
1 39084U 13008A   26199.26955005  .00000097  00000+0  31654-4 0  9993
2 39084  98.2288 269.0334 0001361  91.3602 268.7752 14.57095317702426
SARAL                   
1 39086U 13009A   26199.25478600  .00000016  00000+0  21986-4 0  9994
2 39086  98.5557  25.4293 0001886 159.5618 200.5642 14.32896248700058
GAOFEN-1                
1 39150U 13018A   26199.30395269  .00000473  00000+0  74955-4 0  9992
2 39150  97.9082 270.7373 0017342 161.3936 198.7912 14.76521400712838
VNREDSAT 1              
1 39160U 13021B   26199.23670977  .00000076  00000+0  22660-4 0  9996
2 39160  97.9058 251.4589 0001550  81.4043 278.7336 14.64885240704834
ARIRANG-5 (KOMPSAT-5)   
1 39227U 13042A   26199.29196222 -.00000107  00000+0 -33082-5 0  9993
2 39227  97.6202  25.5552 0005077  49.7500 310.4169 15.04494867708534
SKYSAT-A                
1 39418U 13066C   26199.07553485  .00001492  00000+0  87414-4 0  9998
2 39418  97.3800 247.4884 0020728 203.0344 156.9960 15.13124135693152
DUBAISAT-2              
1 39419U 13066D   26199.27649691  .00001685  00000+0  10640-3 0  9996
2 39419  97.4581 188.6133 0009156 291.2972  68.7280 15.10386504691083
GPM-CORE                
1 39574U 14009C   26199.28247311  .00003122  00000+0  71092-4 0  9997
2 39574  64.9694 203.9389 0010917 262.9535  97.0364 15.45064538702618
SENTINEL-1A             
1 39634U 14016A   26198.60748559  .00000020  00000+0  14006-4 0  9993
2 39634  98.1738 205.6947 0001510  77.7211 282.4158 14.59175806654458
KAZEOSAT 1              
1 39731U 14024A   26199.31455815  .00000042  00000+0  25900-4 0  9998
2 39731  98.3194 270.9853 0001189  84.7620 275.3706 14.42038012643041
