OBJECT_NAME,OBJECT_ID,EPOCH,MEAN_MOTION,ECCENTRICITY,INCLINATION,RA_OF_ASC_NODE,ARG_OF_PERICENTER,MEAN_ANOMALY,EPHEMERIS_TYPE,CLASSIFICATION_TYPE,NORAD_CAT_ID,ELEMENT_SET_NO,REV_AT_EPOCH,BSTAR,MEAN_MOTION_DOT,MEAN_MOTION_DDOT
DUBAISAT-1,2009-041B,2026-07-18T02:06:19.000224,14.75169131,.00096909,98.0089,332.0139,338.9394,21.1415,0,U,35682,999,90965,.6165186E-4,.365E-5,0
OCEANSAT-2,2009-051A,2026-07-18T05:23:18.724992,13.99655927,.0017539,98.2322,182.9772,144.7955,215.4374,0,U,35931,999,88367,.11431899E-4,-.21E-6,0
WORLDVIEW-2 (WV-2),2009-055A,2026-07-18T06:26:53.562336,14.37907448,.00054196,98.4754,272.2951,122.4763,237.6949,0,U,35946,999,88011,.28061748E-4,.41E-6,0
SMOS,2009-059A,2026-07-18T02:46:01.360128,14.39736941,.00011803,98.4430,25.9970,97.5512,262.5811,0,U,36036,999,87790,.46775692E-4,.103E-5,0
YAOGAN-7,2009-069A,2026-07-18T03:54:00.552960,14.78036983,.0023341,98.0028,84.8325,301.3574,58.5352,0,U,36110,999,89420,.32977329E-4,.186E-5,0
TANDEM-X,2010-030A,2026-07-07T11:29:58.986816,15.19154052,.0001887,97.4457,195.8973,94.3019,265.8431,0,U,36605,999,88972,.21566E-4,.386E-5,0
CARTOSAT-2B,2010-035A,2026-07-18T07:59:26.314944,14.78652745,.0012743,97.9932,249.6805,90.8256,269.4415,0,U,36795,999,86445,.22686356E-4,.114E-5,0
YAOGAN-10,2010-038A,2026-07-18T07:53:32.645184,14.85433146,.00016016,97.8965,222.4852,81.0273,289.5247,0,U,36834,999,86183,.38469654E-4,.278E-5,0
COSMO-SKYMED 4,2010-060A,2026-07-18T07:06:20.799648,14.82149722,.00015449,97.8892,22.4454,85.1514,274.9875,0,U,37216,999,84917,-.7772686E-5,-.114E-5,0
RESOURCESAT-2,2011-015A,2026-07-18T06:26:48.488928,14.21599976,.00117382,98.7630,266.4932,162.5529,197.6053,0,U,37387,999,79059,.33308937E-4,.29E-6,0
HAIYANG-2A,2011-043A,2026-07-18T06:44:41.356608,13.73205346,.00020205,99.3400,201.2423,23.5087,336.6154,0,U,37781,999,75092,.41792869E-4,-.5E-7,0
RASAT,2011-044D,2026-07-18T06:11:07.571328,14.68195153,.00219372,98.0583,290.1808,93.6120,342.6382,0,U,37791,999,79774,.7874716E-4,.406E-5,0
SRMSAT,2011-058D,2026-07-18T07:57:05.858784,14.11581459,.00116742,19.9705,230.9631,185.6722,272.4800,0,U,37841,999,76222,.31597989E-4,.323E-5,0
PLEIADES 1A,2011-076F,2026-07-18T08:12:48.059424,14.58547810,.00016308,98.1967,274.0247,77.9448,357.4396,0,U,38012,999,77653,.29171592E-4,.9E-6,0
ZIYUAN 1-02C (ZY 1-02C),2011-079A,2026-07-18T07:34:11.183808,14.38237449,.00058107,98.4056,265.9717,204.1863,232.0791,0,U,38038,999,76368,.95458109E-4,.247E-5,0
ARIRANG-3 (KOMPSAT-3),2012-025B,2026-07-18T07:19:28.859232,14.62230472,.00060351,98.1187,156.2318,30.4365,329.7186,0,U,38338,999,75589,.4423275E-4,.176E-5,0
EXACTVIEW-1 (ADS-1B),2012-039C,2026-07-18T06:37:29.784288,14.24992675,.00119436,98.9808,317.3728,83.4857,276.7681,0,U,38709,999,72713,.36599739E-4,.39E-6,0
SPOT 6,2012-047A,2026-07-18T06:35:31.473312,14.58539458,.000111,98.2104,266.2173,91.8214,268.3112,0,U,38755,999,73758,.11597556E-4,.8E-7,0
PLEIADES 1B,2012-068A,2026-07-18T07:02:19.036896,14.58534811,.00015006,98.1937,273.9147,78.7123,281.4244,0,U,39019,999,72538,-.17755E-6,-.46E-6,0
GOKTURK 2,2012-073A,2026-07-18T06:35:14.296992,14.75568979,.00010033,97.6806,35.1458,99.4873,260.6451,0,U,39030,999,72909,-.587516E-5,-.87E-6,0
LANDSAT 8,2013-008A,2026-07-18T06:28:09.124320,14.57095317,.00013619,98.2288,269.0334,91.3602,268.7752,0,U,39084,999,70242,.31654475E-4,.97E-6,0
SARAL,2013-009A,2026-07-18T06:06:53.510400,14.32896248,.00018864,98.5557,25.4293,159.5618,200.5642,0,U,39086,999,70005,.21985932E-4,.16E-6,0
GAOFEN-1,2013-018A,2026-07-18T07:17:41.512416,14.76521400,.00173426,97.9082,270.7373,161.3936,198.7912,0,U,39150,999,71283,.74955349E-4,.473E-5,0
VNREDSAT 1,2013-021B,2026-07-18T05:40:51.724128,14.64885240,.00015508,97.9058,251.4589,81.4043,278.7336,0,U,39160,999,70483,.22659544E-4,.76E-6,0
ARIRANG-5 (KOMPSAT-5),2013-042A,2026-07-18T07:00:25.535808,15.04494867,.00050779,97.6202,25.5552,49.7500,310.4169,0,U,39227,999,70853,-.3308182E-5,-.107E-5,0
SKYSAT-A,2013-066C,2026-07-18T01:48:46.211040,15.13124135,.00207284,97.3800,247.4884,203.0344,156.9960,0,U,39418,999,69315,.87414229E-4,.1492E-4,0
DUBAISAT-2,2013-066D,2026-07-18T06:38:09.333024,15.10386504,.00091562,97.4581,188.6133,291.2972,68.7280,0,U,39419,999,69108,.10640281E-3,.1685E-4,0
GPM-CORE,2014-009C,2026-07-18T06:46:45.676704,15.45064538,.00109178,64.9694,203.9389,262.9535,97.0364,0,U,39574,999,70261,.71091616E-4,.3122E-4,0
SENTINEL-1A,2014-016A,2026-07-17T14:34:46.754976,14.59175806,.00015106,98.1738,205.6947,77.7211,282.4158,0,U,39634,999,65445,.14006304E-4,.2E-6,0
KAZEOSAT 1,2014-024A,2026-07-18T07:32:57.824160,14.42038012,.00011895,98.3194,270.9853,84.7620,275.3706,0,U,39731,999,64304,.25900376E-4,.42E-6,0
